NORAD_CAT_ID,OBJECT_NAME,OBJECT_TYPE,EPOCH,MEAN_MOTION,ECCENTRICITY,INCLINATION,RA_OF_ASC_NODE,ARG_OF_PERICENTER,MEAN_ANOMALY,BSTAR,MEAN_MOTION_DOT,MEAN_MOTION_DDOT,TLE_LINE0,TLE_LINE1,TLE_LINE2,SEMIMAJOR_AXIS,PERIOD,APOGEE,PERIGEE,DECAYED
52454.0,STARLINK-3888,PAYLOAD,2022-11-30 04:58:41,15.08833052,0.000197,53.2193,35.8621,43.8993,316.2155,4.428100000000001e-05,4.17e-06,0.0,0 STARLINK-3888,1 52454U 22049D   22334.20742409  .00000417  00000-0  44281-4 0  9994,2 52454  53.2193  35.8621 0001970  43.8993 316.2155 15.08833052 31791,6917.901999999999,95.438,541.129,538.404,0.0
52454.0,STARLINK-3888,PAYLOAD,2022-11-30 12:55:37,15.08833887,0.0001992,53.2195,34.3757,45.0052,315.1101,4.6523e-05,4.52e-06,0.0,0 STARLINK-3888,1 52454U 22049D   22334.53862488  .00000452  00000-0  46523-4 0  9990,2 52454  53.2195  34.3757 0001992  45.0052 315.1101 15.08833887 31684,6917.899,95.438,541.1419999999998,538.386,0.0
52454.0,STARLINK-3888,PAYLOAD,2022-12-01 12:46:24,15.08835166,0.0001953,53.2213,29.9169,49.4679,310.6483,6.2964e-05,7.14e-06,0.0,0 STARLINK-3888,1 52454U 22049D   22335.53222471  .00000714  00000-0  62964-4 0  9991,2 52454  53.2213  29.9169 0001953  49.4679 310.6483 15.08835166 31834,6917.895,95.438,541.111,538.409,0.0
52454.0,STARLINK-3888,PAYLOAD,2022-12-01 14:21:46,15.08841154,0.0001966,53.2195,29.6182,41.2644,318.8496,8.6735e-05,1.093e-05,0.0,0 STARLINK-3888,1 52454U 22049D   22335.59845984  .00001093  00000-0  86735-4 0  9990,2 52454  53.2195  29.6182 0001966  41.2644 318.8496 15.08841154 32009,6917.877,95.437,541.102,538.382,0.0
52454.0,STARLINK-3888,PAYLOAD,2022-12-02 03:04:53,15.08796268,0.0002179,53.219,27.2407,50.429,309.6894,0.00076751,0.00011933,0.0,0 STARLINK-3888,1 52454U 22049D   22336.12839469  .00011933  00000-0  76751-3 0  9991,2 52454  53.2190  27.2407 0002179  50.4290 309.6894 15.08796268 32087,6918.014,95.44,541.386,538.372,0.0
52454.0,STARLINK-3888,PAYLOAD,2022-12-02 12:37:10,15.08840142,0.0002161,53.2173,25.4533,37.6134,322.5009,6.5977e-05,7.62e-06,0.0,0 STARLINK-3888,1 52454U 22049D   22336.52581974  .00000762  00000-0  65977-4 0  9997,2 52454  53.2173  25.4533 0002161  37.6134 322.5009 15.08840142 32143,6917.88,95.438,541.24,538.25,0.0
52454.0,STARLINK-3888,PAYLOAD,2022-12-03 12:27:58,15.08835988,0.0002101,53.2197,20.9952,38.0901,322.0239,-2.0744e-05,-6.18e-06,0.0,0 STARLINK-3888,1 52454U 22049D   22337.51942504 -.00000618  00000-0 -20744-4 0  9992,2 52454  53.2197  20.9952 0002101  38.0901 322.0239 15.08835988 32293,6917.893,95.438,541.211,538.304,0.0
52454.0,STARLINK-3888,PAYLOAD,2022-12-03 20:24:53,15.08839365,0.0002105,53.2196,19.5083,36.906,323.2077,-2.8602e-05,-7.43e-06,0.0,0 STARLINK-3888,1 52454U 22049D   22337.85062363 -.00000743  00000-0 -28602-4 0  9995,2 52454  53.2196  19.5083 0002105  36.9060 323.2077 15.08839365 32182,6917.882,95.438,541.2040000000002,538.2909999999998,0.0
52454.0,STARLINK-3888,PAYLOAD,2022-12-04 02:46:24,15.08904482,0.0001889,53.2205,18.3194,23.1945,336.9132,-0.00098877,-0.00016018,0.0,0 STARLINK-3888,1 52454U 22049D   22338.11556034 -.00016018  00000-0 -98877-3 0  9990,2 52454  53.2205  18.3194 0001889  23.1945 336.9132 15.08904482 32389,6917.683000000001,95.433,540.855,538.242,0.0
52454.0,STARLINK-3888,PAYLOAD,2022-12-04 07:32:36,15.08831141,0.000201,53.2203,17.4263,39.5666,320.5473,-3.2315e-05,-8.02e-06,0.0,0 STARLINK-3888,1 52454U 22049D   22338.31431050 -.00000802  00000-0 -32315-4 0  9992,2 52454  53.2203  17.4263 0002010  39.5666 320.5473 15.08831141 32414,6917.906999999997,95.438,541.163,538.382,0.0
52454.0,STARLINK-3888,PAYLOAD,2022-12-04 09:07:59,15.08835394,0.000198,53.2197,17.1278,36.6337,323.4790000000001,-5.0127e-05,-1.086e-05,0.0,0 STARLINK-3888,1 52454U 22049D   22338.38054797 -.00001086  00000-0 -50127-4 0  9994,2 52454  53.2197  17.1278 0001980  36.6337 323.4790 15.08835394 32268,6917.894,95.438,541.129,538.39,0.0
52454.0,STARLINK-3888,PAYLOAD,2022-12-04 13:54:08,15.08835754,0.0001973,53.2195,16.2356,36.8473,323.2655,-4.4039e-05,-9.89e-06,0.0,0 STARLINK-3888,1 52454U 22049D   22338.57926813 -.00000989  00000-0 -44039-4 0  9998,2 52454  53.2195  16.2356 0001973  36.8473 323.2655 15.08835754 32299,6917.893,95.438,541.123,538.393,0.0
52454.0,STARLINK-3888,PAYLOAD,2022-12-04 20:15:41,15.08837271,0.0002025,53.2196,15.0464,38.0744,322.0391,7.7613e-05,9.47e-06,0.0,0 STARLINK-3888,1 52454U 22049D   22338.84422506  .00000947  00000-0  77613-4 0  9994,2 52454  53.2196  15.0464 0002025  38.0744 322.0391 15.08837271 32493,6917.889,95.438,541.155,538.3530000000002,0.0
52454.0,STARLINK-3888,PAYLOAD,2022-12-05 08:58:45,15.08850921,0.0001949,53.2196,12.6674,42.2215,317.8927,0.00010437,1.374e-05,0.0,0 STARLINK-3888,1 52454U 22049D   22339.37413522  .00001374  00000-0  10437-3 0  9996,2 52454  53.2196  12.6674 0001949  42.2215 317.8927 15.08850921 32576,6917.847,95.437,541.06,538.364,0.0
52454.0,STARLINK-3888,PAYLOAD,2022-12-05 13:44:54,15.08848585,0.0001783,53.2207,11.7753,37.555,322.5566,7.1287e-05,8.47e-06,0.0,0 STARLINK-3888,1 52454U 22049D   22339.57285698  .00000847  00000-0  71287-4 0  9994,2 52454  53.2207  11.7753 0001783  37.5550 322.5566 15.08848585 32443,6917.854,95.437,540.953,538.486,0.0
52454.0,STARLINK-3888,PAYLOAD,2022-12-06 02:28:00,15.08840642,0.0001933,53.2201,9.3965,38.3881,321.7248,0.00012751,1.742e-05,0.0,0 STARLINK-3888,1 52454U 22049D   22340.10278029  .00001742  00000-0  12751-3 0  9990,2 52454  53.2201   9.3965 0001933  38.3881 321.7248 15.08840642 32688,6917.878000000002,95.438,541.081,538.406,0.0
52454.0,STARLINK-3888,PAYLOAD,2022-12-06 08:49:33,15.08839107,0.0002072,53.2204,8.2077,38.0436,322.0702,9.4113e-05,1.21e-05,0.0,0 STARLINK-3888,1 52454U 22049D   22340.36774319  .00001210  00000-0  94113-4 0  9994,2 52454  53.2204   8.2077 0002072  38.0436 322.0702 15.08839107 32561,6917.8830000000025,95.438,541.182,538.315,0.0
52454.0,STARLINK-3888,PAYLOAD,2022-12-07 02:18:48,15.08830772,0.0002244,53.219,4.9376,38.0878,322.0272,-6.4923e-05,-1.321e-05,0.0,0 STARLINK-3888,1 52454U 22049D   22341.09639519 -.00001321  00000-0 -64923-4 0  9998,2 52454  53.2190   4.9376 0002244  38.0878 322.0272 15.08830772 32832,6917.909000000002,95.438,541.326,538.221,0.0
52454.0,STARLINK-3888,PAYLOAD,2022-12-07 18:12:39,15.08831983,0.0002204,53.2174,1.9637,41.2616,318.8542,3.1965e-05,2.2e-06,0.0,0 STARLINK-3888,1 52454U 22049D   22341.75879427  .00000220  00000-0  31965-4 0  9990,2 52454  53.2174   1.9637 0002204  41.2616 318.8542 15.08831983 32774,6917.905,95.438,541.295,538.245,0.0
52454.0,STARLINK-3888,PAYLOAD,2022-12-08 02:09:34,15.08843321,0.0002008,53.2177,0.4743,37.0484,323.0647,2.2167e-05,6.5e-07,0.0,0 STARLINK-3888,1 52454U 22049D   22342.08998597  .00000065  00000-0  22167-4 0  9998,2 52454  53.2177   0.4743 0002008  37.0484 323.0647 15.08843321 32983,6917.87,95.437,541.124,538.346,0.0
52454.0,STARLINK-3888,PAYLOAD,2022-12-08 10:06:30,15.08844978,0.0002144,53.2182,358.9902,39.3088,320.8059,0.00012684,1.731e-05,0.0,0 STARLINK-3888,1 52454U 22049D   22342.42118199  .00001731  00000-0  12684-3 0  9991,2 52454  53.2182 358.9902 0002144  39.3088 320.8059 15.08844978 32872,6917.865,95.437,541.2130000000002,538.247,0.0
52454.0,STARLINK-3888,PAYLOAD,2022-12-08 18:03:25,15.08841942,0.0001833,53.2165,357.5031,32.8556,327.255,0.00014556,2.029e-05,0.0,0 STARLINK-3888,1 52454U 22049D   22342.75238142  .00002029  00000-0  14556-3 0  9999,2 52454  53.2165 357.5031 0001833  32.8556 327.2550 15.08841942 32924,6917.874,95.437,541.007,538.471,0.0
52454.0,STARLINK-3888,PAYLOAD,2022-12-09 17:54:15,15.0881101,0.0002107,53.2171,353.0432,36.3044,323.8091,7.4822e-05,9.02e-06,0.0,0 STARLINK-3888,1 52454U 22049D   22343.74600739  .00000902  00000-0  74822-4 0  9995,2 52454  53.2171 353.0432 0002107  36.3044 323.8091 15.08811010 33233,6917.969,95.439,541.2919999999998,538.376,0.0
52454.0,STARLINK-3888,PAYLOAD,2022-12-10 06:37:20,15.08831243,0.0002133,53.2184,350.6618,40.0286,320.0863,-0.00022046,-3.794e-05,0.0,0 STARLINK-3888,1 52454U 22049D   22344.27592798 -.00003794  00000-0 -22046-3 0  9993,2 52454  53.2184 350.6618 0002133  40.0286 320.0863 15.08831243 33310,6917.906999999997,95.438,541.248,538.297,0.0
52454.0,STARLINK-3888,PAYLOAD,2022-12-10 09:48:06,15.08830512,0.0002216,53.2179,350.0679,35.5774,324.5365,-0.00014984,-2.672e-05,0.0,0 STARLINK-3888,1 52454U 22049D   22344.40840676 -.00002672  00000-0 -14984-3 0  9995,2 52454  53.2179 350.0679 0002216  35.5774 324.5365 15.08830512 33176,6917.909000000002,95.438,541.307,538.241,0.0
52454.0,STARLINK-3888,PAYLOAD,2022-12-11 04:52:41,15.08873486,0.0001866,53.2173,346.4995,336.8364,23.2544,-0.00036451,-6.09e-05,0.0,0 STARLINK-3888,1 52454U 22049D   22345.20325740 -.00006090  00000-0 -36451-3 0  9995,2 52454  53.2173 346.4995 0001866 336.8364  23.2544 15.08873486 33452,6917.778,95.435,540.934,538.352,0.0
52454.0,STARLINK-3888,PAYLOAD,2022-12-11 12:49:38,15.0884608,0.0002233,53.2172,345.0129,37.2379,322.8767,0.0003444,5.198e-05,0.0,0 STARLINK-3888,1 52454U 22049D   22345.53447092  .00005198  00000-0  34440-3 0  9998,2 52454  53.2172 345.0129 0002233  37.2379 322.8767 15.08846080 33503,6917.861999999999,95.437,541.2719999999998,538.182,0.0
52454.0,STARLINK-3888,PAYLOAD,2022-12-11 19:11:11,15.08844355,0.0002239,53.2161,343.8234,38.7863,321.329,0.00052858,8.135e-05,0.0,0 STARLINK-3888,1 52454U 22049D   22345.79944388  .00008135  00000-0  52858-3 0  9993,2 52454  53.2161 343.8234 0002239  38.7863 321.3290 15.08844355 33546,6917.8669999999975,95.437,541.281,538.183,0.0
52454.0,STARLINK-3888,PAYLOAD,2022-12-11 20:46:35,15.08848562,0.000224,53.216,343.5258,36.3086,323.8058,0.0005678,8.762e-05,0.0,0 STARLINK-3888,1 52454U 22049D   22345.86568333  .00008762  00000-0  56780-3 0  9997,2 52454  53.2160 343.5258 0002240  36.3086 323.8058 15.08848562 33397,6917.854,95.437,541.269,538.17,0.0
